{"type": "FeatureCollection", "features": [ {"type": "Feature", "properties": {"norad_id": 40664, "name": "SKY MEXICO-1", "group": "intelsat", "lat": 0.02566371081475876, "lon": 74.15150603489309, "alt_km": 35795.14422078628, "timestamp": "2025-12-25T03:55:55.975085+00:00", "meta": {"OBJECT_NAME": "SKY MEXICO-1", "OBJECT_ID": "2015-026B", "EPOCH": "2025-12-24T07:10:03.735840", "MEAN_MOTION": 1.00270371, "ECCENTRICITY": 0.00024911, "INCLINATION": 0.0084, "RA_OF_ASC_NODE": 342.1449, "ARG_OF_PERICENTER": 307.4864, "MEAN_ANOMALY": 192.1944, "EPHEMERIS_TYPE": 0, "CLASSIFICATION_TYPE": "U", "NORAD_CAT_ID": 40664, "ELEMENT_SET_NO": 999, "REV_AT_EPOCH": 3870, "BSTAR": 0, "MEAN_MOTION_DOT": -2.13e-06, "MEAN_MOTION_DDOT": 0}, "tle": {"line1": "1 40664U 15026B   25358.29865435 -.00000213  00000+0  00000+0 0  9994", "line2": "2 40664   0.0084 342.1449 0002491 307.4864 192.1944  1.00270371 38708"}}, "geometry": {"type": "Point", "coordinates": [74.15150603489309, 0.02566371081475876]}}, {"type": "Feature", "properties": {"norad_id": 40874, "name": "INTELSAT 34 (IS-34)", "group": "intelsat", "lat": 0.02098395756604476, "lon": 97.39921639027764, "alt_km": 35785.384861552084, "timestamp": "2025-12-25T03:55:55.975097+00:00", "meta": {"OBJECT_NAME": "INTELSAT 34 (IS-34)", "OBJECT_ID": "2015-039A", "EPOCH": "2025-12-24T05:59:16.012896", "MEAN_MOTION": 1.00270249, "ECCENTRICITY": 6.867e-05, "INCLINATION": 0.0128, "RA_OF_ASC_NODE": 316.008, "ARG_OF_PERICENTER": 206.3361, "MEAN_ANOMALY": 325.0065, "EPHEMERIS_TYPE": 0, "CLASSIFICATION_TYPE": "U", "NORAD_CAT_ID": 40874, "ELEMENT_SET_NO": 999, "REV_AT_EPOCH": 3787, "BSTAR": 0, "MEAN_MOTION_DOT": -2.64e-06, "MEAN_MOTION_DDOT": 0}, "tle": {"line1": "1 40874U 15039A   25358.24949089 -.00000264  00000+0  00000+0 0  9990", "line2": "2 40874   0.0128 316.0080 0000686 206.3361 325.0065  1.00270249 37876"}}, "geometry": {"type": "Point", "coordinates": [97.39921639027764, 0.02098395756604476]}}, {"type": "Feature", "properties": {"norad_id": 41581, "name": "INTELSAT 31 (IS-31)", "group": "intelsat", "lat": 0.017737470092046067, "lon": 57.82243539947958, "alt_km": 35793.573343083845, "timestamp": "2025-12-25T03:55:55.975109+00:00", "meta": {"OBJECT_NAME": "INTELSAT 31 (IS-31)", "OBJECT_ID": "2016-035A", "EPOCH": "2025-12-23T19:31:44.703840", "MEAN_MOTION": 1.00269658, "ECCENTRICITY": 0.0001926, "INCLINATION": 0.0283, "RA_OF_ASC_NODE": 262.055, "ARG_OF_PERICENTER": 303.365, "MEAN_ANOMALY": 85.0534, "EPHEMERIS_TYPE": 0, "CLASSIFICATION_TYPE": "U", "NORAD_CAT_ID": 41581, "ELEMENT_SET_NO": 999, "REV_AT_EPOCH": 3492, "BSTAR": 0, "MEAN_MOTION_DOT": -1.29e-06, "MEAN_MOTION_DDOT": 0}, "tle": {"line1": "1 41581U 16035A   25357.81371185 -.00000129  00000+0  00000+0 0  9991", "line2": "2 41581   0.0283 262.0550 0001926 303.3650  85.0534  1.00269658 34922"}}, "geometry": {"type": "Point", "coordinates": [57.82243539947958, 0.017737470092046067]}}, {"type": "Feature", "properties": {"norad_id": 41747, "name": "INTELSAT 36 (IS-36)", "group": "intelsat", "lat": -0.015582910162686911, "lon": -138.61690136079577, "alt_km": 35787.42080561769, "timestamp": "2025-12-25T03:55:55.975121+00:00", "meta": {"OBJECT_NAME": "INTELSAT 36 (IS-36)", "OBJECT_ID": "2016-053A", "EPOCH": "2025-12-24T20:06:06.128352", "MEAN_MOTION": 1.00271083, "ECCENTRICITY": 0.0001178, "INCLINATION": 0.011, "RA_OF_ASC_NODE": 13.055, "ARG_OF_PERICENTER": 311.9516, "MEAN_ANOMALY": 138.6177, "EPHEMERIS_TYPE": 0, "CLASSIFICATION_TYPE": "U", "NORAD_CAT_ID": 41747, "ELEMENT_SET_NO": 999, "REV_AT_EPOCH": 3420, "BSTAR": 0, "MEAN_MOTION_DOT": -3e-08, "MEAN_MOTION_DDOT": 0}, "tle": {"line1": "1 41747U 16053A   25358.83757093 -.00000003  00000+0  00000+0 0  9995", "line2": "2 41747   0.0110  13.0550 0001178 311.9516 138.6177  1.00271083 34208"}}, "geometry": {"type": "Point", "coordinates": [-138.61690136079577, -0.015582910162686911]}}, {"type": "Feature", "properties": {"norad_id": 41945, "name": "INTELSAT 32E (IS-32E)", "group": "intelsat", "lat": 0.03200189138002666, "lon": 109.73427693064846, "alt_km": 35786.44344938445, "timestamp": "2025-12-25T03:55:55.975132+00:00", "meta": {"OBJECT_NAME": "INTELSAT 32E (IS-32E)", "OBJECT_ID": "2017-007B", "EPOCH": "2025-12-24T12:53:27.268224", "MEAN_MOTION": 1.00269336, "ECCENTRICITY": 5.65e-05, "INCLINATION": 0.0234, "RA_OF_ASC_NODE": 68.585, "ARG_OF_PERICENTER": 320.3284, "MEAN_ANOMALY": 214.5894, "EPHEMERIS_TYPE": 0, "CLASSIFICATION_TYPE": "U", "NORAD_CAT_ID": 41945, "ELEMENT_SET_NO": 999, "REV_AT_EPOCH": 3247, "BSTAR": 0, "MEAN_MOTION_DOT": -2.48e-06, "MEAN_MOTION_DDOT": 0}, "tle": {"line1": "1 41945U 17007B   25358.53712116 -.00000248  00000+0  00000+0 0  9990", "line2": "2 41945   0.0234  68.5850 0000565 320.3284 214.5894  1.00269336 32473"}}, "geometry": {"type": "Point", "coordinates": [109.73427693064846, 0.03200189138002666]}}, {"type": "Feature", "properties": {"norad_id": 42818, "name": "INTELSAT 35E (IS-35E)", "group": "intelsat", "lat": 0.0430177076083791, "lon": 118.36970940503299, "alt_km": 35795.74824136411, "timestamp": "2025-12-25T03:55:55.975144+00:00", "meta": {"OBJECT_NAME": "INTELSAT 35E (IS-35E)", "OBJECT_ID": "2017-041A", "EPOCH": "2025-12-24T04:16:38.864640", "MEAN_MOTION": 1.00266954, "ECCENTRICITY": 0.0002055, "INCLINATION": 0.0217, "RA_OF_ASC_NODE": 27.8846, "ARG_OF_PERICENTER": 251.5822, "MEAN_ANOMALY": 203.1418, "EPHEMERIS_TYPE": 0, "CLASSIFICATION_TYPE": "U", "NORAD_CAT_ID": 42818, "ELEMENT_SET_NO": 999, "REV_AT_EPOCH": 3106, "BSTAR": 0, "MEAN_MOTION_DOT": 0, "MEAN_MOTION_DDOT": 0}, "tle": {"line1": "1 42818U 17041A   25358.17822760  .00000000  00000+0  00000+0 0  9990", "line2": "2 42818   0.0217  27.8846 0002055 251.5822 203.1418  1.00266954 31069"}}, "geometry": {"type": "Point", "coordinates": [118.36970940503299, 0.0430177076083791]}}, {"type": "Feature", "properties": {"norad_id": 42950, "name": "INTELSAT 37E (IS-37E)", "group": "intelsat", "lat": 0.03701574501069103, "lon": 134.87717654596534, "alt_km": 35794.60271951577, "timestamp": "2025-12-25T03:55:55.975155+00:00", "meta": {"OBJECT_NAME": "INTELSAT 37E (IS-37E)", "OBJECT_ID": "2017-059A", "EPOCH": "2025-12-24T14:43:24.239136", "MEAN_MOTION": 1.0026987, "ECCENTRICITY": 0.0003098, "INCLINATION": 0.0202, "RA_OF_ASC_NODE": 20.7984, "ARG_OF_PERICENTER": 241.3919, "MEAN_ANOMALY": 34.0508, "EPHEMERIS_TYPE": 0, "CLASSIFICATION_TYPE": "U", "NORAD_CAT_ID": 42950, "ELEMENT_SET_NO": 999, "REV_AT_EPOCH": 3031, "BSTAR": 0, "MEAN_MOTION_DOT": 0, "MEAN_MOTION_DDOT": 0}, "tle": {"line1": "1 42950U 17059A   25358.61347499  .00000000  00000+0  00000+0 0  9996", "line2": "2 42950   0.0202  20.7984 0003098 241.3919  34.0508  1.00269870 30315"}}, "geometry": {"type": "Point", "coordinates": [134.87717654596534, 0.03701574501069103]}}, {"type": "Feature", "properties": {"norad_id": 43632, "name": "AZERSPACE 2 (IS-38)", "group": "intelsat", "lat": -0.0024040521529662597, "lon": -162.00724376901798, "alt_km": 35785.24027080495, "timestamp": "2025-12-25T03:55:55.975167+00:00", "meta": {"OBJECT_NAME": "AZERSPACE 2 (IS-38)", "OBJECT_ID": "2018-074A", "EPOCH": "2025-12-24T20:37:38.640864", "MEAN_MOTION": 1.00270809, "ECCENTRICITY": 0.0001329, "INCLINATION": 0.0179, "RA_OF_ASC_NODE": 15.9221, "ARG_OF_PERICENTER": 261.013, "MEAN_ANOMALY": 171.208, "EPHEMERIS_TYPE": 0, "CLASSIFICATION_TYPE": "U", "NORAD_CAT_ID": 43632, "ELEMENT_SET_NO": 999, "REV_AT_EPOCH": 2670, "BSTAR": 0, "MEAN_MOTION_DOT": 1.58e-06, "MEAN_MOTION_DDOT": 0}, "tle": {"line1": "1 43632U 18074A   25358.85947501  .00000158  00000+0  00000+0 0  9992", "line2": "2 43632   0.0179  15.9221 0001329 261.0130 171.2080  1.00270809 26706"}}, "geometry": {"type": "Point", "coordinates": [-162.00724376901798, -0.0024040521529662597]}}, {"type": "Feature", "properties": {"norad_id": 43633, "name": "HORIZONS-3E", "group": "intelsat", "lat": 0.006694424459429655, "lon": -38.10820705179881, "alt_km": 35784.129794588735, "timestamp": "2025-12-25T03:55:55.975193+00:00", "meta": {"OBJECT_NAME": "HORIZONS-3E", "OBJECT_ID": "2018-074B", "EPOCH": "2025-12-24T12:50:38.700960", "MEAN_MOTION": 1.0026891, "ECCENTRICITY": 6.5e-05, "INCLINATION": 0.0125, "RA_OF_ASC_NODE": 213.1009, "ARG_OF_PERICENTER": 109.3498, "MEAN_ANOMALY": 132.5124, "EPHEMERIS_TYPE": 0, "CLASSIFICATION_TYPE": "U", "NORAD_CAT_ID": 43633, "ELEMENT_SET_NO": 999, "REV_AT_EPOCH": 2659, "BSTAR": 0, "MEAN_MOTION_DOT": 0, "MEAN_MOTION_DDOT": 0}, "tle": {"line1": "1 43633U 18074B   25358.53517015  .00000000  00000+0  00000+0 0  9997", "line2": "2 43633   0.0125 213.1009 0000650 109.3498 132.5124  1.00268910 26597"}}, "geometry": {"type": "Point", "coordinates": [-38.10820705179881, 0.006694424459429655]}}, {"type": "Feature", "properties": {"norad_id": 44333, "name": "AT&T T-16", "group": "intelsat", "lat": 0.0024017663283077513, "lon": 52.01723248554268, "alt_km": 35787.111368636906, "timestamp": "2025-12-25T03:55:55.975207+00:00", "meta": {"OBJECT_NAME": "AT&T T-16", "OBJECT_ID": "2019-034A", "EPOCH": "2025-12-23T22:55:25.672800", "MEAN_MOTION": 1.00268558, "ECCENTRICITY": 6.686e-05, "INCLINATION": 0.0228, "RA_OF_ASC_NODE": 67.9518, "ARG_OF_PERICENTER": 76.4171, "MEAN_ANOMALY": 191.3588, "EPHEMERIS_TYPE": 0, "CLASSIFICATION_TYPE": "U", "NORAD_CAT_ID": 44333, "ELEMENT_SET_NO": 999, "REV_AT_EPOCH": 2387, "BSTAR": 0, "MEAN_MOTION_DOT": -9.4e-07, "MEAN_MOTION_DDOT": 0}, "tle": {"line1": "1 44333U 19034A   25357.95515825 -.00000094  00000+0  00000+0 0  9998", "line2": "2 44333   0.0228  67.9518 0000668  76.4171 191.3588  1.00268558 23873"}}, "geometry": {"type": "Point", "coordinates": [52.01723248554268, 0.0024017663283077513]}}]}